[{"OBJECT_NAME":"TRANSPORTER-13 OBJECT BC","OBJECT_ID":"2025-052BC","EPOCH":"2026-03-09T15:51:01.832832","MEAN_MOTION":14.94345554,"ECCENTRICITY":0.00011495,"INCLINATION":97.6967,"RA_OF_ASC_NODE":322.0668,"ARG_OF_PERICENTER":20.7823,"MEAN_ANOMALY":339.3444,"EPHEMERIS_TYPE":0,"CLASSIFICATION_TYPE":"U","NORAD_CAT_ID":63260,"ELEMENT_SET_NO":999,"REV_AT_EPOCH":5376,"BSTAR":0.00025427428,"MEAN_MOTION_DOT":2.678e-5,"MEAN_MOTION_DDOT":0},{"OBJECT_NAME":"OBJECT D","OBJECT_ID":"2025-274D","EPOCH":"2026-03-09T17:23:54.815136","MEAN_MOTION":14.92403662,"ECCENTRICITY":0.0012011,"INCLINATION":97.7437,"RA_OF_ASC_NODE":359.4086,"ARG_OF_PERICENTER":332.7011,"MEAN_ANOMALY":27.3575,"EPHEMERIS_TYPE":0,"CLASSIFICATION_TYPE":"U","NORAD_CAT_ID":66653,"ELEMENT_SET_NO":999,"REV_AT_EPOCH":1537,"BSTAR":0.00025671905,"MEAN_MOTION_DOT":2.576e-5,"MEAN_MOTION_DDOT":0}]
