TRANSPORTER-13 OBJECT BC
1 63260U 25052BC  26068.66043788  .00002678  00000+0  25427-3 0  9990
2 63260  97.6967 322.0668 0001150  20.7823 339.3444 14.94345554 53764
2025-274D               
1 66653U 25274D   26068.72493999  .00002576  00000+0  25672-3 0  9994
2 66653  97.7437 359.4086 0012011 332.7011  27.3575 14.92403662 15374
